KUIPER-00079            
1 64826U 25151L   25251.58337963 -.00020840  00000+0 -12094-2 0  9992
2 64826  51.8900  28.2404 0010254 344.8674  26.5608 15.11226305  5546
KUIPER-00080            
1 64827U 25151M   25251.58337963 -.00021749  00000+0 -12356-2 0  9993
2 64827  51.8920  28.2156 0004118  17.6563  86.9986 15.12059409  5210
KUIPER-00082            
1 64828U 25151N   25251.59273187  .00049675  00000+0  13574-2 0  9991
2 64828  51.8794  25.4760 0006550 334.5755  25.4909 15.36883270  8343
KUIPER-00083            
1 64829U 25151P   25251.58337963 -.00013165  00000+0 -54277-3 0  9997
2 64829  51.8811  26.4526 0008479 345.1045 202.0459 15.22738837  5216
KUIPER-00084            
1 64830U 25151Q   25251.58337963 -.00021189  00000+0 -17920-2 0  9997
2 64830  51.8962  31.4473 0010450 338.4062 228.5401 14.97227927  4974
KUIPER-00085            
1 64831U 25151R   25251.58714016  .00064683  00000+0  17490-2 0  9992
2 64831  51.8796  25.4437 0007541 332.8440  27.2151 15.37085048  8340
KUIPER-00086            
1 64832U 25151S   25251.58337963 -.00020643  00000+0 -10148-2 0  9998
2 64832  51.8827  27.2514 0010504 337.8761 168.4805 15.17069649  3780
KUIPER-00087            
1 64833U 25151T   25251.59765754  .00030921  00000+0  88364-3 0  9997
2 64833  51.8788  25.5089 0006789 343.2618  16.8143 15.35708527  8340
